[
  {
    "OBJECT_NAME": "STARLINK-5089",
    "OBJECT_ID": "23046BJ",
    "EPOCH": "2025-11-11T05:45:31.764672",
    "MEAN_MOTION": 15.02535186,
    "ECCENTRICITY": 0.000108,
    "INCLINATION": 43.0035,
    "RA_OF_ASC_NODE": 31.3982,
    "ARG_OF_PERICENTER": 269.6635,
    "MEAN_ANOMALY": 90.4083,
    "EPHEMERIS_TYPE": 0,
    "CLASSIFICATION_TYPE": "U",
    "NORAD_CAT_ID": 56148,
    "ELEMENT_SET_NO": 999,
    "REV_AT_EPOCH": 14483,
    "BSTAR": 6.397000000000001e-05,
    "MEAN_MOTION_DOT": 6.61e-06,
    "MEAN_MOTION_DDOT": 0.0,
    "TLE_LINE1": "1 56148U 23046BJ  25315.23995098  .00000661  00000+0  63970-4 0  9991",
    "TLE_LINE2": "2 56148  43.0035  31.3982 0001080 269.6635  90.4083 15.02535186144833",
    "COMMENT": "Grouped by shell and plane from TLE"
  },
  {
    "OBJECT_NAME": "STARLINK-30119",
    "OBJECT_ID": "23079A",
    "EPOCH": "2025-11-11T05:34:18.477120",
    "MEAN_MOTION": 15.02547102,
    "ECCENTRICITY": 0.0001222,
    "INCLINATION": 43.0034,
    "RA_OF_ASC_NODE": 31.1794,
    "ARG_OF_PERICENTER": 272.8997,
    "MEAN_ANOMALY": 87.1706,
    "EPHEMERIS_TYPE": 0,
    "CLASSIFICATION_TYPE": "U",
    "NORAD_CAT_ID": 56823,
    "ELEMENT_SET_NO": 999,
    "REV_AT_EPOCH": 13549,
    "BSTAR": 0.00013002,
    "MEAN_MOTION_DOT": 1.554e-05,
    "MEAN_MOTION_DDOT": 0.0,
    "TLE_LINE1": "1 56823U 23079A   25315.23215830  .00001554  00000+0  13002-3 0  9998",
    "TLE_LINE2": "2 56823  43.0034  31.1794 0001222 272.8997  87.1706 15.02547102135494",
    "COMMENT": "Grouped by shell and plane from TLE"
  },
  {
    "OBJECT_NAME": "STARLINK-30120",
    "OBJECT_ID": "23079B",
    "EPOCH": "2025-11-11T05:29:30.575040",
    "MEAN_MOTION": 15.02539481,
    "ECCENTRICITY": 0.0001578,
    "INCLINATION": 43.0046,
    "RA_OF_ASC_NODE": 31.1592,
    "ARG_OF_PERICENTER": 279.5294,
    "MEAN_ANOMALY": 80.537,
    "EPHEMERIS_TYPE": 0,
    "CLASSIFICATION_TYPE": "U",
    "NORAD_CAT_ID": 56824,
    "ELEMENT_SET_NO": 999,
    "REV_AT_EPOCH": 13538,
    "BSTAR": 5.5099e-05,
    "MEAN_MOTION_DOT": 5.41e-06,
    "MEAN_MOTION_DDOT": 0.0,
    "TLE_LINE1": "1 56824U 23079B   25315.22882610  .00000541  00000+0  55099-4 0  9992",
    "TLE_LINE2": "2 56824  43.0046  31.1592 0001578 279.5294  80.5370 15.02539481135385",
    "COMMENT": "Grouped by shell and plane from TLE"
  },
  {
    "OBJECT_NAME": "STARLINK-30084",
    "OBJECT_ID": "23079C",
    "EPOCH": "2025-11-11T07:00:26.703072",
    "MEAN_MOTION": 15.02548007,
    "ECCENTRICITY": 0.0001229,
    "INCLINATION": 43.005,
    "RA_OF_ASC_NODE": 30.7692,
    "ARG_OF_PERICENTER": 294.1969,
    "MEAN_ANOMALY": 65.8745,
    "EPHEMERIS_TYPE": 0,
    "CLASSIFICATION_TYPE": "U",
    "NORAD_CAT_ID": 56825,
    "ELEMENT_SET_NO": 999,
    "REV_AT_EPOCH": 13507,
    "BSTAR": 1.1785e-05,
    "MEAN_MOTION_DOT": -4.4e-07,
    "MEAN_MOTION_DDOT": 0.0,
    "TLE_LINE1": "1 56825U 23079C   25315.29197573 -.00000044  00000+0  11785-4 0  9990",
    "TLE_LINE2": "2 56825  43.0050  30.7692 0001229 294.1969  65.8745 15.02548007135074",
    "COMMENT": "Grouped by shell and plane from TLE"
  },
  {
    "OBJECT_NAME": "STARLINK-30114",
    "OBJECT_ID": "23079D",
    "EPOCH": "2025-11-11T05:48:39.482496",
    "MEAN_MOTION": 15.02533793,
    "ECCENTRICITY": 0.0001593,
    "INCLINATION": 43.0044,
    "RA_OF_ASC_NODE": 31.0642,
    "ARG_OF_PERICENTER": 290.2068,
    "MEAN_ANOMALY": 69.8603,
    "EPHEMERIS_TYPE": 0,
    "CLASSIFICATION_TYPE": "U",
    "NORAD_CAT_ID": 56826,
    "ELEMENT_SET_NO": 999,
    "REV_AT_EPOCH": 13538,
    "BSTAR": 4.5786e-05,
    "MEAN_MOTION_DOT": 4.15e-06,
    "MEAN_MOTION_DDOT": 0.0,
    "TLE_LINE1": "1 56826U 23079D   25315.24212364  .00000415  00000+0  45786-4 0  9991",
    "TLE_LINE2": "2 56826  43.0044  31.0642 0001593 290.2068  69.8603 15.02533793135385",
    "COMMENT": "Grouped by shell and plane from TLE"
  },
  {
    "OBJECT_NAME": "STARLINK-30151",
    "OBJECT_ID": "23079E",
    "EPOCH": "2025-11-11T06:50:51.234144",
    "MEAN_MOTION": 15.02537134,
    "ECCENTRICITY": 0.0001207,
    "INCLINATION": 43.0033,
    "RA_OF_ASC_NODE": 30.7126,
    "ARG_OF_PERICENTER": 275.9484,
    "MEAN_ANOMALY": 84.1221,
    "EPHEMERIS_TYPE": 0,
    "CLASSIFICATION_TYPE": "U",
    "NORAD_CAT_ID": 56827,
    "ELEMENT_SET_NO": 999,
    "REV_AT_EPOCH": 13507,
    "BSTAR": 0.0001157,
    "MEAN_MOTION_DOT": 1.36e-05,
    "MEAN_MOTION_DDOT": 0.0,
    "TLE_LINE1": "1 56827U 23079E   25315.28531521  .00001360  00000+0  11570-3 0  9998",
    "TLE_LINE2": "2 56827  43.0033  30.7126 0001207 275.9484  84.1221 15.02537134135076",
    "COMMENT": "Grouped by shell and plane from TLE"
  },
  {
    "OBJECT_NAME": "STARLINK-30152",
    "OBJECT_ID": "23079F",
    "EPOCH": "2025-11-11T06:46:03.815904",
    "MEAN_MOTION": 15.02540122,
    "ECCENTRICITY": 7.71e-05,
    "INCLINATION": 42.9974,
    "RA_OF_ASC_NODE": 30.6902,
    "ARG_OF_PERICENTER": 213.788,
    "MEAN_ANOMALY": 146.2913,
    "EPHEMERIS_TYPE": 0,
    "CLASSIFICATION_TYPE": "U",
    "NORAD_CAT_ID": 56828,
    "ELEMENT_SET_NO": 999,
    "REV_AT_EPOCH": 13507,
    "BSTAR": 8.2307e-05,
    "MEAN_MOTION_DOT": 9.09e-06,
    "MEAN_MOTION_DDOT": 0.0,
    "TLE_LINE1": "1 56828U 23079F   25315.28198861  .00000909  00000+0  82307-4 0  9990",
    "TLE_LINE2": "2 56828  42.9974  30.6902 0000771 213.7880 146.2913 15.02540122135074",
    "COMMENT": "Grouped by shell and plane from TLE"
  },
  {
    "OBJECT_NAME": "STARLINK-30069",
    "OBJECT_ID": "23079M",
    "EPOCH": "2025-11-11T06:17:17.209536",
    "MEAN_MOTION": 15.02543269,
    "ECCENTRICITY": 0.0001938,
    "INCLINATION": 43.0031,
    "RA_OF_ASC_NODE": 30.5379,
    "ARG_OF_PERICENTER": 278.7191,
    "MEAN_ANOMALY": 81.3432,
    "EPHEMERIS_TYPE": 0,
    "CLASSIFICATION_TYPE": "U",
    "NORAD_CAT_ID": 56834,
    "ELEMENT_SET_NO": 999,
    "REV_AT_EPOCH": 13507,
    "BSTAR": 0.00017626,
    "MEAN_MOTION_DOT": 2.178e-05,
    "MEAN_MOTION_DDOT": 0.0,
    "TLE_LINE1": "1 56834U 23079M   25315.26200474  .00002178  00000+0  17626-3 0  9990",
    "TLE_LINE2": "2 56834  43.0031  30.5379 0001938 278.7191  81.3432 15.02543269135076",
    "COMMENT": "Grouped by shell and plane from TLE"
  },
  {
    "OBJECT_NAME": "STARLINK-30144",
    "OBJECT_ID": "23079N",
    "EPOCH": "2025-11-11T05:00:44.002368",
    "MEAN_MOTION": 15.02546904,
    "ECCENTRICITY": 0.0001387,
    "INCLINATION": 43.0049,
    "RA_OF_ASC_NODE": 31.0091,
    "ARG_OF_PERICENTER": 275.0612,
    "MEAN_ANOMALY": 85.0072,
    "EPHEMERIS_TYPE": 0,
    "CLASSIFICATION_TYPE": "U",
    "NORAD_CAT_ID": 56835,
    "ELEMENT_SET_NO": 999,
    "REV_AT_EPOCH": 13506,
    "BSTAR": 0.00022897,
    "MEAN_MOTION_DOT": 2.891e-05,
    "MEAN_MOTION_DDOT": 0.0,
    "TLE_LINE1": "1 56835U 23079N   25315.20884262  .00002891  00000+0  22897-3 0  9996",
    "TLE_LINE2": "2 56835  43.0049  31.0091 0001387 275.0612  85.0072 15.02546904135068",
    "COMMENT": "Grouped by shell and plane from TLE"
  },
  {
    "OBJECT_NAME": "STARLINK-30142",
    "OBJECT_ID": "23079P",
    "EPOCH": "2025-11-11T06:31:40.864800",
    "MEAN_MOTION": 15.02537087,
    "ECCENTRICITY": 0.0001342,
    "INCLINATION": 43.003,
    "RA_OF_ASC_NODE": 30.619,
    "ARG_OF_PERICENTER": 277.7152,
    "MEAN_ANOMALY": 82.3538,
    "EPHEMERIS_TYPE": 0,
    "CLASSIFICATION_TYPE": "U",
    "NORAD_CAT_ID": 56836,
    "ELEMENT_SET_NO": 999,
    "REV_AT_EPOCH": 13507,
    "BSTAR": 2.9815000000000005e-05,
    "MEAN_MOTION_DOT": 1.99e-06,
    "MEAN_MOTION_DDOT": 0.0,
    "TLE_LINE1": "1 56836U 23079P   25315.27200075  .00000199  00000+0  29815-4 0  9995",
    "TLE_LINE2": "2 56836  43.0030  30.6190 0001342 277.7152  82.3538 15.02537087135073",
    "COMMENT": "Grouped by shell and plane from TLE"
  },
  {
    "OBJECT_NAME": "STARLINK-30133",
    "OBJECT_ID": "23079Q",
    "EPOCH": "2025-11-11T04:51:08.710560",
    "MEAN_MOTION": 15.02548043,
    "ECCENTRICITY": 8.71e-05,
    "INCLINATION": 43.0021,
    "RA_OF_ASC_NODE": 30.9445,
    "ARG_OF_PERICENTER": 272.7304,
    "MEAN_ANOMALY": 87.3439,
    "EPHEMERIS_TYPE": 0,
    "CLASSIFICATION_TYPE": "U",
    "NORAD_CAT_ID": 56837,
    "ELEMENT_SET_NO": 999,
    "REV_AT_EPOCH": 13506,
    "BSTAR": 0.0001875,
    "MEAN_MOTION_DOT": 2.331e-05,
    "MEAN_MOTION_DDOT": 0.0,
    "TLE_LINE1": "1 56837U 23079Q   25315.20218415  .00002331  00000+0  18750-3 0  9991",
    "TLE_LINE2": "2 56837  43.0021  30.9445 0000871 272.7304  87.3439 15.02548043135068",
    "COMMENT": "Grouped by shell and plane from TLE"
  },
  {
    "OBJECT_NAME": "STARLINK-30076",
    "OBJECT_ID": "23079S",
    "EPOCH": "2025-11-11T06:22:05.035584",
    "MEAN_MOTION": 15.02535644,
    "ECCENTRICITY": 0.000121,
    "INCLINATION": 43.0034,
    "RA_OF_ASC_NODE": 30.5557,
    "ARG_OF_PERICENTER": 272.2873,
    "MEAN_ANOMALY": 87.7831,
    "EPHEMERIS_TYPE": 0,
    "CLASSIFICATION_TYPE": "U",
    "NORAD_CAT_ID": 56839,
    "ELEMENT_SET_NO": 999,
    "REV_AT_EPOCH": 13507,
    "BSTAR": 7.6045e-05,
    "MEAN_MOTION_DOT": 8.24e-06,
    "MEAN_MOTION_DDOT": 0.0,
    "TLE_LINE1": "1 56839U 23079S   25315.26533606  .00000824  00000+0  76045-4 0  9998",
    "TLE_LINE2": "2 56839  43.0034  30.5557 0001210 272.2873  87.7831 15.02535644135072",
    "COMMENT": "Grouped by shell and plane from TLE"
  },
  {
    "OBJECT_NAME": "STARLINK-30135",
    "OBJECT_ID": "23079V",
    "EPOCH": "2025-11-11T07:14:48.819552",
    "MEAN_MOTION": 15.02556333,
    "ECCENTRICITY": 0.0001685,
    "INCLINATION": 43.0043,
    "RA_OF_ASC_NODE": 30.7454,
    "ARG_OF_PERICENTER": 271.6212,
    "MEAN_ANOMALY": 88.4437,
    "EPHEMERIS_TYPE": 0,
    "CLASSIFICATION_TYPE": "U",
    "NORAD_CAT_ID": 56842,
    "ELEMENT_SET_NO": 999,
    "REV_AT_EPOCH": 13507,
    "BSTAR": 0.0,
    "MEAN_MOTION_DOT": -3.24e-06,
    "MEAN_MOTION_DDOT": 0.0,
    "TLE_LINE1": "1 56842U 23079V   25315.30195393 -.00000324  00000+0 -89196-5 0  9993",
    "TLE_LINE2": "2 56842  43.0043  30.7454 0001685 271.6212  88.4437 15.02556333135078",
    "COMMENT": "Grouped by shell and plane from TLE"
  }
]